{
    "links": {
        "self": "http://www.neowsapp.com/rest/v1/neo/3780706?api_key=iIulBulltgU6a56xZRHN4H3l9WmuAYTsLGpBGhQ2"
    },
    "id": "3780706",
    "neo_reference_id": "3780706",
    "name": "(2017 QM)",
    "designation": "2017 QM",
    "nasa_jpl_url": "http://ssd.jpl.nasa.gov/sbdb.cgi?sstr=3780706",
    "absolute_magnitude_h": 23.4,
    "estimated_diameter": {
        "kilometers": {
            "estimated_diameter_min": 0.0555334912,
            "estimated_diameter_max": 0.1241766613
        },
        "meters": {
            "estimated_diameter_min": 55.5334911581,
            "estimated_diameter_max": 124.1766612574
        },
        "miles": {
            "estimated_diameter_min": 0.0345069009,
            "estimated_diameter_max": 0.0771597762
        },
        "feet": {
            "estimated_diameter_min": 182.1964991311,
            "estimated_diameter_max": 407.4037573197
        }
    },
    "is_potentially_hazardous_asteroid": false,
    "close_approach_data": [
        {
            "close_approach_date": "2017-08-09",
            "close_approach_date_full": "2017-Aug-09 14:01",
            "epoch_date_close_approach": 1502287260000,
            "relative_velocity": {
                "kilometers_per_second": "11.7498860364",
                "kilometers_per_hour": "42299.5897311116",
                "miles_per_hour": "26283.3200748677"
            },
            "miss_distance": {
                "astronomical": "0.2520351091",
                "lunar": "98.0416574399",
                "kilometers": "37703915.486577617",
                "miles": "23428126.7066884346"
            },
            "orbiting_body": "Earth"
        }
    ],
    "orbital_data": {
        "orbit_id": "1",
        "orbit_determination_date": "2017-08-18 16:12:04",
        "first_observation_date": "2017-08-16",
        "last_observation_date": "2017-08-18",
        "data_arc_in_days": 2,
        "observations_used": 9,
        "orbit_uncertainty": "9",
        "minimum_orbit_intersection": ".244208",
        "jupiter_tisserand_invariant": "4.396",
        "epoch_osculation": "2457982.5",
        "eccentricity": ".1825094354164936",
        "semi_major_axis": "1.523430118099596",
        "inclination": "22.80051928017479",
        "ascending_node_longitude": "143.2686089602036",
        "orbital_period": "686.8030779925695",
        "perihelion_distance": "1.245389747348757",
        "perihelion_argument": "157.1946449599759",
        "aphelion_distance": "1.801470488850436",
        "perihelion_time": "2457957.759071911395",
        "mean_anomaly": "12.96839574151437",
        "mean_motion": ".5241677149325398",
        "equinox": "J2000",
        "orbit_class": {
            "orbit_class_type": "AMO",
            "orbit_class_description": "Near-Earth asteroid orbits similar to that of 1221 Amor",
            "orbit_class_range": "1.017 AU < q (perihelion) < 1.3 AU"
        }
    },
    "is_sentry_object": false
}